[{"OBJECT_NAME":"STARLINK-32017","OBJECT_ID":"2024-111S","EPOCH":"2026-03-09T10:24:29.632320","MEAN_MOTION":15.30188427,"ECCENTRICITY":0.00012116,"INCLINATION":53.1598,"RA_OF_ASC_NODE":76.8789,"ARG_OF_PERICENTER":70.1319,"MEAN_ANOMALY":289.9812,"EPHEMERIS_TYPE":0,"CLASSIFICATION_TYPE":"U","NORAD_CAT_ID":60032,"ELEMENT_SET_NO":999,"REV_AT_EPOCH":9899,"BSTAR":-2.9136899e-5,"MEAN_MOTION_DOT":-1.222e-5,"MEAN_MOTION_DDOT":0},{"OBJECT_NAME":"ALTAIR (RS65S)","OBJECT_ID":"2024-199AW","EPOCH":"2026-03-09T21:31:54.569568","MEAN_MOTION":15.34998047,"ECCENTRICITY":0.00120363,"INCLINATION":97.3179,"RA_OF_ASC_NODE":298.9542,"ARG_OF_PERICENTER":307.5319,"MEAN_ANOMALY":52.483,"EPHEMERIS_TYPE":0,"CLASSIFICATION_TYPE":"U","NORAD_CAT_ID":61779,"ELEMENT_SET_NO":999,"REV_AT_EPOCH":12187,"BSTAR":0.00027541775,"MEAN_MOTION_DOT":9.293e-5,"MEAN_MOTION_DDOT":0}]
